ONEWEB-0311             
1 49097U 21075Y   26192.85096715  .00000029  00000+0  41307-4 0  9994
2 49097  87.9153   0.9572 0001879  75.7567 284.3773 13.17648362236870
ONEWEB-0312             
1 49098U 21075Z   26192.86616123  .00000027  00000+0  36710-4 0  9997
2 49098  87.9140   0.9633 0002056  85.0142 275.1224 13.17648395236859
ONEWEB-0313             
1 49099U 21075AA  26192.87107935  .00000094  00000+0  20908-3 0  9990
2 49099  87.9129   0.9656 0001774  86.0858 274.0476 13.17650125236843
ONEWEB-0314             
1 49100U 21075AB  26192.91340348  .00000086  00000+0  18932-3 0  9990
2 49100  87.9149   0.9344 0002130  82.8214 277.3160 13.17650845236822
ONEWEB-0315             
1 49101U 21075AC  26192.83310834 -.00000416  00000+0 -11922-2 0  9999
2 49101  87.8954 345.7433 0001561  83.0325 277.0981 13.12441727238404
ONEWEB-0316             
1 49102U 21075AD  26192.81880941  .00001932  00000+0  48682-2 0  9994
2 49102  87.9207 330.5592 0002419 107.1739 252.9658 13.18668336240459
ONEWEB-0317             
1 49103U 21075AE  26192.83649686 -.00000402  00000+0 -11542-2 0  9994
2 49103  87.8963 345.7685 0002427 109.1575 250.9817 13.12442271238429
ONEWEB-0318             
1 49104U 21075AF  26192.81530519  .00000026  00000+0  33152-4 0  9990
2 49104  87.9191 330.5598 0001838  90.7896 269.3447 13.18686346240419
ONEWEB-0319             
1 49105U 21075AG  26192.85265119  .00000124  00000+0  28514-3 0  9990
2 49105  87.9143   0.9601 0001633  78.0717 282.0597 13.17648739236858
ONEWEB-0323             
1 49106U 21075AH  26192.81786759 -.00000017  00000+0 -81858-4 0  9999
2 49106  87.8968 345.7524 0001780  78.2245 281.9083 13.12440849237786
ONEWEB-0329             
1 49107U 21075AJ  26192.86108726  .00000043  00000+0  77510-4 0  9994
2 49107  87.9143   0.9599 0001956  87.8480 272.2876 13.17650218236833
ONEWEB-0330             
1 49108U 21075AK  26192.86458658 -.00000039  00000+0 -13460-3 0  9997
2 49108  87.9143   0.9699 0002058  88.6110 271.5257 13.17646212236876
ONEWEB-0292             
1 49186U 21083A   26192.84709471  .00000020  00000+0  18938-4 0  9996
2 49186  87.8972 315.3295 0001855  95.2017 264.9324 13.13470926234164
ONEWEB-0303             
1 49187U 21083B   26192.81191685 -.00000301  00000+0 -79567-3 0  9994
2 49187  87.9177 330.5586 0001815  93.1480 266.9860 13.18685017233229
ONEWEB-0306             
1 49188U 21083C   26192.80181050  .00000001  00000+0 -30336-4 0  9997
2 49188  87.9198 330.5501 0002041 101.8041 258.3320 13.18684709233269
ONEWEB-0307             
1 49189U 21083D   26192.84115704 -.00000165  00000+0 -48545-3 0  9997
2 49189  87.8973 315.3288 0001850  96.1041 264.0299 13.13472092234160
